STARLINK-3675           
1 51963U 22025H   26068.17013745 -.00003333  00000+0 -10048-3 0  9994
2 51963  53.1619  15.9713 0001378  90.3380 269.7779 15.30188338221090
TRANSPORTER-12 OBJECT AZ
1 62656U 25009AZ  26068.71026235  .00016057  00000+0  54903-3 0  9991
2 62656  97.3981 151.9913 0000987  45.3581 314.7740 15.30349724 63792
